IRIDIUM 119             
1 42959U 17061E   24073.90465656  .00000355  00000+0  11970-3 0  9994
2 42959  86.4025  10.1247 0002095  90.6656 269.4780 14.34215965336524
IRIDIUM 107             
1 42960U 17061F   24073.57484748  .00000167  00000+0  52711-4 0  9992
2 42960  86.4026  10.2786 0002426  90.5638 269.5836 14.34216747336491
IRIDIUM 132             
1 42961U 17061G   24074.20910443  .00000149  00000+0  45989-4 0  9999
2 42961  86.4028   9.9991 0002327  91.2346 268.9116 14.34217169336573
IRIDIUM 136             
1 42962U 17061H   24073.82220537  .00000246  00000+0  80898-4 0  9991
2 42962  86.4026  10.1634 0001950  88.5629 271.5790 14.34216937336530
IRIDIUM 139             
1 42963U 17061J   24074.17739297  .00000243  00000+0  79550-4 0  9999
2 42963  86.4027  10.0638 0002347  88.4031 271.7433 14.34218587336597
IRIDIUM 125             
1 42964U 17061K   24074.37401372  .00000192  00000+0  61427-4 0  9999
2 42964  86.4029  10.0276 0002159  96.0614 264.0828 14.34218137336630
IRIDIUM 135             
1 43070U 17083A   24073.37138010  .00000000  00000+0 -70146-5 0  9995
2 43070  86.3952 307.1597 0002453  80.6787 279.4686 14.34216311325784
IRIDIUM 138             
1 43071U 17083B   24074.37350981  .00000025  00000+0  16943-5 0  9991
2 43071  86.3940 306.4694 0002010  93.9482 266.1943 14.34216948325910
